[{"OBJECT_NAME":"STARLINK-31883","OBJECT_ID":"2024-111E","EPOCH":"2026-03-09T10:56:24.691776","MEAN_MOTION":15.30190449,"ECCENTRICITY":0.00012212,"INCLINATION":53.1608,"RA_OF_ASC_NODE":77.0016,"ARG_OF_PERICENTER":88.897,"MEAN_ANOMALY":271.217,"EPHEMERIS_TYPE":0,"CLASSIFICATION_TYPE":"U","NORAD_CAT_ID":60020,"ELEMENT_SET_NO":999,"REV_AT_EPOCH":9894,"BSTAR":-8.318067e-6,"MEAN_MOTION_DOT":-6.05e-6,"MEAN_MOTION_DDOT":0},{"OBJECT_NAME":"SL-3 R\/B","OBJECT_ID":"1981-065B","EPOCH":"2026-03-09T21:58:16.284000","MEAN_MOTION":15.33300883,"ECCENTRICITY":0.00117648,"INCLINATION":97.6337,"RA_OF_ASC_NODE":111.1786,"ARG_OF_PERICENTER":10.529,"MEAN_ANOMALY":349.6196,"EPHEMERIS_TYPE":0,"CLASSIFICATION_TYPE":"U","NORAD_CAT_ID":12586,"ELEMENT_SET_NO":999,"REV_AT_EPOCH":43499,"BSTAR":0.00030084921,"MEAN_MOTION_DOT":9.62e-5,"MEAN_MOTION_DDOT":0}]
